     2.11           N: GPS NAV DATA                         RINEX VERSION / TYPE
teqc  2019Feb25                         20250320 02:05:01UTCPGM / RUN BY / DATE
Linux 2.4.21-27.ELsmp|Opteron|gcc -static|Linux 64|=+       COMMENT
    3.8184D-08  1.4901D-08 -1.7881D-07  0.0000D+00          ION ALPHA
    1.4336D+05  0.0000D+00 -3.2768D+05  1.3107D+05          ION BETA
    4.656612873077D-09 1.421085471520D-14   503808     2358 DELTA-UTC: A0,A1,T,W
                                                            END OF HEADER
13 25  3 20  0  0  0.0 6.990046240389D-04 7.958078640513D-13 0.000000000000D+00
    2.600000000000D+01-1.762500000000D+01 4.468400412527D-09-8.697394648941D-01
   -9.126961231232D-07 8.950847317465D-03 6.230548024178D-06 5.153678411484D+03
    3.456000000000D+05 4.656612873077D-08-1.002068884237D+00 1.750886440277D-07
    9.731469938098D-01 2.646562500000D+02 9.568026191039D-01-8.035691861678D-09
    3.607293115380D-11 1.000000000000D+00 2.358000000000D+03 0.000000000000D+00
    2.000000000000D+00 0.000000000000D+00-1.164153218269D-08 2.600000000000D+01
    3.409380000000D+05 4.000000000000D+00
11 25  3 20  1 14 40.0-7.381802424788D-04 3.865352482535D-12 0.000000000000D+00
    2.250000000000D+02-5.840625000000D+01 4.499830293136D-09-7.949202386587D-01
   -2.978369593620D-06 1.687750802375D-03 4.785135388374D-06 5.153631162643D+03
    3.500800000000D+05 5.587935447693D-09 3.088057324474D+00 8.381903171539D-08
    9.659838798031D-01 2.913750000000D+02-2.355597556711D+00-8.163554330520D-09
   -1.321483616526D-10 1.000000000000D+00 2.358000000000D+03 0.000000000000D+00
    2.000000000000D+00 0.000000000000D+00-8.847564458847D-09 2.250000000000D+02
    3.429180000000D+05 4.000000000000D+00
15 25  3 20  0  0  0.0 2.758977934718D-04 4.320099833421D-12 0.000000000000D+00
    3.600000000000D+01-7.406250000000D+00 5.097355182447D-09-1.661815635737D+00
   -1.788139343262D-07 1.614364213310D-02 6.310641765594D-06 5.153774797440D+03
    3.456000000000D+05 2.495944499969D-07-1.307914842874D+00 3.017485141754D-07
    9.381149948836D-01 2.437812500000D+02 1.400258854859D+00-8.204270312218D-09
    1.796503403006D-10 1.000000000000D+00 2.358000000000D+03 0.000000000000D+00
    2.000000000000D+00 0.000000000000D+00-1.024454832077D-08 3.600000000000D+01
    3.433980000000D+05 4.000000000000D+00
30 25  3 19 23 59 44.0-1.904461532831D-04 9.094947017729D-12 0.000000000000D+00
    3.900000000000D+01-2.146875000000D+01 5.094497920573D-09 2.673913465629D+00
   -1.236796379089D-06 7.524220389314D-03 7.959082722664D-06 5.153713762283D+03
    3.455840000000D+05-1.862645149231D-09-1.033519892309D-01-1.490116119385D-07
    9.360213352857D-01 2.129687500000D+02-2.409604520374D+00-8.109266354922D-09
   -2.767972440020D-10 1.000000000000D+00 2.358000000000D+03 0.000000000000D+00
    2.000000000000D+00 0.000000000000D+00 3.725290298462D-09 3.900000000000D+01
    3.448680000000D+05 4.000000000000D+00
18 25  3 20  0  0  0.0-6.450316868722D-04 3.296918293927D-12 0.000000000000D+00
    1.890000000000D+02-5.706250000000D+01 4.269106396846D-09-2.636908973294D+00
   -2.954155206680D-06 4.880149732344D-03 5.375593900681D-06 5.153702354431D+03
    3.456000000000D+05-7.636845111847D-08 3.061517076383D+00-1.043081283569D-07
    9.741658240882D-01 2.858125000000D+02-2.947742111828D+00-7.962117368433D-09
   -1.335769925893D-10 1.000000000000D+00 2.358000000000D+03 0.000000000000D+00
    2.000000000000D+00 0.000000000000D+00-8.381903171539D-09 7.010000000000D+02
    3.448680000000D+05 4.000000000000D+00
 7 25  3 20  0  0  0.0-1.689093187451D-05-1.591615728103D-12 0.000000000000D+00
    1.550000000000D+02-2.471875000000D+01 4.624478342371D-09 2.866611287924D+00
   -1.393258571625D-06 1.935767685063D-02 8.059665560722D-06 5.153734445572D+03
    3.456000000000D+05 1.229345798492D-07-9.953285579439D-02-1.937150955200D-07
    9.508428342149D-01 2.156875000000D+02-2.066287511180D+00-7.639961092188D-09
   -2.967980771169D-10 1.000000000000D+00 2.358000000000D+03 0.000000000000D+00
    2.800000000000D+00 0.000000000000D+00-1.071020960808D-08 1.550000000000D+02
    3.448980000000D+05 4.000000000000D+00
